"73P-BR:1979 P1-BR:1930 J1-BR" "Sol"
{
	Class	"comet"
	Mesh	"asteroid.cmod"
	Texture	"comet.jpg"
	Radius	0.005
	Beginning	"2006 05 01"
	Visible	true
	Clickable	true
	EllipticalOrbit
	{
		Epoch	2453856.5  # 2006 May 01
		Period	5.155573233771
		SemiMajorAxis	2.984323087077
		Eccentricity	0.685154134206
		Inclination	11.31924782945
		AscendingNode	69.826711746344
		ArgOfPericenter	198.841292426124
		MeanAnomaly	353.072424133727
	}
	UniformRotation
	{
		Period	6
	}
	Albedo	0.04
	InfoURL	"http://ssd.jpl.nasa.gov/sbdb.cgi?ID=c00073br"
}

"73P-BS:1979 P1-BS:1930 J1-BS" "Sol"
{
	Class	"comet"
	Mesh	"asteroid.cmod"
	Texture	"comet.jpg"
	Radius	0.005
	Beginning	"2006 05 01"
	Visible	true
	Clickable	true
	EllipticalOrbit
	{
		Epoch	2453856.5  # 2006 May 01
		Period	5.497926552801
		SemiMajorAxis	3.115017477257
		Eccentricity	0.698573546172
		Inclination	11.444464486684
		AscendingNode	69.939997143257
		ArgOfPericenter	198.768523157123
		MeanAnomaly	353.586007896127
	}
	UniformRotation
	{
		Period	6
	}
	Albedo	0.04
	InfoURL	"http://ssd.jpl.nasa.gov/sbdb.cgi?ID=c00073bs"
}

"74P-Smirnova-Chernykh:1975 E2:1967 EU" "Sol"
{
	Class	"comet"
	Mesh	"asteroid.cmod"
	Texture	"comet.jpg"
	Radius	2.23
	Visible	true
	Clickable	true
	EllipticalOrbit
	{
		Epoch	2457375.5  # 2015 Dec 19
		Period	8.48190519291
		SemiMajorAxis	4.159011689562
		Eccentricity	0.149158538388
		Inclination	6.65259460293
		AscendingNode	77.057168366519
		ArgOfPericenter	86.832380759644
		MeanAnomaly	270.76472829439
	}
	UniformRotation
	{
		Period	6
	}
	Albedo	0.04
	InfoURL	"http://ssd.jpl.nasa.gov/sbdb.cgi?sstr=74P"
}

"75D-Kohoutek:1980 P1:1975 C1" "Sol"
{
	Class	"comet"
	Mesh	"asteroid.cmod"
	Texture	"comet.jpg"
	Radius	2.3
	Ending	"1994 06 17"
	Visible	true
	Clickable	true
	EllipticalOrbit
	{
		Epoch	2449520.5  # 1994 Jun 17
		Period	6.669479754181
		SemiMajorAxis	3.54314699923
		Eccentricity	0.496307395647
		Inclination	5.907209259398
		AscendingNode	269.686094546032
		ArgOfPericenter	175.801724661787
		MeanAnomaly	358.093842175701
	}
	UniformRotation
	{
		Period	6
	}
	Albedo	0.04
	InfoURL	"http://ssd.jpl.nasa.gov/sbdb.cgi?sstr=75D"
}

"76P-West-Kohoutek-Ikemura:1980 V2:1975 D1" "Sol"
{
	Class	"comet"
	Mesh	"asteroid.cmod"
	Texture	"comet.jpg"
	Radius	0.33
	Visible	true
	Clickable	true
	EllipticalOrbit
	{
		Epoch	2457164.5  # 2015 May 22
		Period	6.467447812353
		SemiMajorAxis	3.471228107966
		Eccentricity	0.538514113091
		Inclination	30.478611594524
		AscendingNode	84.129450884373
		ArgOfPericenter	0.077258958919
		MeanAnomaly	113.446299924907
	}
	UniformRotation
	{
		Period	6
	}
	Albedo	0.04
	InfoURL	"http://ssd.jpl.nasa.gov/sbdb.cgi?sstr=76P"
}

"77P-Longmore:1981 A1:1975 L1" "Sol"
{
	Class	"comet"
	Mesh	"asteroid.cmod"
	Texture	"comet.jpg"
	Radius	4.1
	Visible	true
	Clickable	true
	EllipticalOrbit
	{
		Epoch	2457164.5  # 2015 May 22
		Period	6.879970897107
		SemiMajorAxis	3.617308919459
		Eccentricity	0.354097218935
		Inclination	24.334529022328
		AscendingNode	14.831932869468
		ArgOfPericenter	196.801743428812
		MeanAnomaly	308.728923342115
	}
	UniformRotation
	{
		Period	6
	}
	Albedo	0.04
	InfoURL	"http://ssd.jpl.nasa.gov/sbdb.cgi?sstr=77P"
}

"78P-Gehrels:Gehrels 2:1981 L1:1973 S1" "Sol"
{
	Class	"comet"
	Mesh	"asteroid.cmod"
	Texture	"comet.jpg"
	Radius	2.5
	Visible	true
	Clickable	true
	EllipticalOrbit
	{
		Epoch	2456771.5  # 2014 Apr 24
		Period	7.221090054229
		SemiMajorAxis	3.735909718382
		Eccentricity	0.461902859636
		Inclination	6.253845264351
		AscendingNode	210.561210461237
		ArgOfPericenter	192.754436810899
		MeanAnomaly	113.639985323124
	}
	UniformRotation
	{
		Period	6
	}
	Albedo	0.04
	InfoURL	"http://ssd.jpl.nasa.gov/sbdb.cgi?sstr=78P"
}

"79P-du Toit-Hartley:1982 C1-A:1945 G1" "Sol"
{
	Class	"comet"
	Mesh	"asteroid.cmod"
	Texture	"comet.jpg"
	Radius	1.4
	Visible	true
	Clickable	true
	EllipticalOrbit
	{
		Epoch	2456558.5  # 2013 Sept 23
		Period	5.05622102755
		SemiMajorAxis	2.945858611715
		Eccentricity	0.618513489951
		Inclination	3.145618792108
		AscendingNode	280.640336854096
		ArgOfPericenter	281.689317338125
		MeanAnomaly	5.987205298912
	}
	UniformRotation
	{
		Period	6
	}
	Albedo	0.04
	InfoURL	"http://ssd.jpl.nasa.gov/sbdb.cgi?sstr=79P"
}

"80P-Peters-Hartley:1982 N1:1846 M1" "Sol"
{
	Class	"comet"
	Mesh	"asteroid.cmod"
	Texture	"comet.jpg"
	Radius	2.5
	Visible	true
	Clickable	true
	EllipticalOrbit
	{
		Epoch	2456908.5  # 2014 Sept 08
		Period	8.065218974464
		SemiMajorAxis	4.021659589585
		Eccentricity	0.598990241505
		Inclination	29.922755992805
		AscendingNode	259.889299852493
		ArgOfPericenter	339.131105146452
		MeanAnomaly	352.296169317905
	}
	UniformRotation
	{
		Period	6
	}
	Albedo	0.04
	InfoURL	"http://ssd.jpl.nasa.gov/sbdb.cgi?sstr=80P"
}

"81P-Wild:Wild 2:1983 S1:1978 A2" "Sol"
{
	Class	"comet"
	Mesh	"wild.cmod"
	Orientation	[ 90 0 1 0 ]
	Texture	"comet.jpg"
	Radius	2.75
	Visible	true
	Clickable	true
	EllipticalOrbit
	{
		Epoch	2453006.5  # 2004 Jan 02
		Period	6.40163403816238
		SemiMajorAxis	3.44763880788375
		Eccentricity	0.5387090762551365
		Inclination	3.239910045708647
		AscendingNode	136.1424167991977
		ArgOfPericenter	41.74697429282372
		MeanAnomaly	15.10067002663695
	}
	UniformRotation
	{
		Period	6
	}
	Albedo	0.04
	InfoURL	"https://en.wikipedia.org/wiki/81P/Wild"
}

"82P-Gehrels:Gehrels 3:1984 P1:1975 U1" "Sol"
{
	Class	"comet"
	Mesh	"asteroid.cmod"
	Texture	"comet.jpg"
	Radius	0.73
	Visible	true
	Clickable	true
	EllipticalOrbit
	{
		Epoch	2455600.5  # 2011 Feb 08
		Period	8.43038046583
		SemiMajorAxis	4.142151524006
		Eccentricity	0.122843602381
		Inclination	1.125906251496
		AscendingNode	239.461725987592
		ArgOfPericenter	226.351035647314
		MeanAnomaly	45.785760519949
	}
	UniformRotation
	{
		Period	6
	}
	Albedo	0.04
	InfoURL	"http://ssd.jpl.nasa.gov/sbdb.cgi?sstr=82P"
}

"83D-Russell:Russell 1:1985 G1:1979 M2" "Sol"
{
	Class	"comet"
	Mesh	"asteroid.cmod"
	Texture	"comet.jpg"
	Radius	2.5
	Ending	"1985 06 24"
	Visible	true
	Clickable	true
	EllipticalOrbit
	{
		Epoch	2446240.5  # 1985 Jun 24
		Period	6.098639749065
		SemiMajorAxis	3.337975810908
		Eccentricity	0.517209914571
		Inclination	22.659458665718
		AscendingNode	230.84200613
		ArgOfPericenter	0.376229120037
		MeanAnomaly	358.185211819653
	}
	UniformRotation
	{
		Period	6
	}
	Albedo	0.04
	InfoURL	"http://ssd.jpl.nasa.gov/sbdb.cgi?sstr=83D"
}

"84P-Giclas:1985 M1:1978 R2" "Sol"
{
	Class	"comet"
	Mesh	"asteroid.cmod"
	Texture	"comet.jpg"
	Radius	0.9
	Visible	true
	Clickable	true
	EllipticalOrbit
	{
		Epoch	2456799.5  # 2014 May 22
		Period	6.948528971282
		SemiMajorAxis	3.641299880656
		Eccentricity	0.495037087328
		Inclination	7.287140451452
		AscendingNode	112.381303081512
		ArgOfPericenter	276.470322109304
		MeanAnomaly	42.937724333973
	}
	UniformRotation
	{
		Period	6
	}
	Albedo	0.04
	InfoURL	"http://ssd.jpl.nasa.gov/sbdb.cgi?sstr=84P"
}

"85P-Boethin:1985 T2:1975 A1" "Sol"
{
	Class	"comet"
	Mesh	"asteroid.cmod"
	Texture	"comet.jpg"
	Radius	3.15
	Visible	true
	Clickable	true
	EllipticalOrbit
	{
		Epoch	2454252.5  # 2007 Jun 01
		Period	11.806390996642
		SemiMajorAxis	5.184887126567
		Eccentricity	0.78116062615
		Inclination	4.29529459103
		AscendingNode	359.396113721737
		ArgOfPericenter	37.618384608104
		MeanAnomaly	313.187510757585
	}
	UniformRotation
	{
		Period	6
	}
	Albedo	0.04
	InfoURL	"http://ssd.jpl.nasa.gov/sbdb.cgi?sstr=85P"
}

"86P-Wild:Wild 3:1987 B3:1980 G1" "Sol"
{
	Class	"comet"
	Mesh	"asteroid.cmod"
	Texture	"comet.jpg"
	Radius	0.43
	Visible	true
	Clickable	true
	EllipticalOrbit
	{
		Epoch	2457375.5  # 2015 Dec 19
		Period	6.844121539109
		SemiMajorAxis	3.604732210953
		Eccentricity	0.372088807033
		Inclination	15.470235099608
		AscendingNode	72.405911395505
		ArgOfPericenter	179.139718412822
		MeanAnomaly	37.396508876016
	}
	UniformRotation
	{
		Period	6
	}
	Albedo	0.04
	InfoURL	"http://ssd.jpl.nasa.gov/sbdb.cgi?sstr=86P"
}

"87P-Bus:1987 B4:1981 E1" "Sol"
{
	Class	"comet"
	Mesh	"asteroid.cmod"
	Texture	"comet.jpg"
	Radius	0.28
	Visible	true
	Clickable	true
	EllipticalOrbit
	{
		Epoch	2456870.5  # 2014 Aug 01
		Period	6.380339094848
		SemiMajorAxis	3.439988882211
		Eccentricity	0.389021068489
		Inclination	2.600758107324
		AscendingNode	181.898297988193
		ArgOfPericenter	24.718609951549
		MeanAnomaly	34.666536128752
	}
	UniformRotation
	{
		Period	6
	}
	Albedo	0.04
	InfoURL	"http://ssd.jpl.nasa.gov/sbdb.cgi?sstr=87P"
}

"88P-Howell:1987 E1:1981 Q1" "Sol"
{
	Class	"comet"
	Mesh	"asteroid.cmod"
	Texture	"comet.jpg"
	Radius	2.2
	Visible	true
	Clickable	true
	EllipticalOrbit
	{
		Epoch	2457380.5  # 2015 Dec 24
		Period	5.481695013074
		SemiMajorAxis	3.108883474924
		Eccentricity	0.563063328525
		Inclination	4.382800476306
		AscendingNode	56.698167943126
		ArgOfPericenter	235.901611327222
		MeanAnomaly	47.069012915461
	}
	UniformRotation
	{
		Period	6
	}
	Albedo	0.04
	InfoURL	"http://ssd.jpl.nasa.gov/sbdb.cgi?sstr=88P"
}

"89P-Russell:Russell 2:1987 N1:1980 S1" "Sol"
{
	Class	"comet"
	Mesh	"asteroid.cmod"
	Texture	"comet.jpg"
	Radius	1.4
	Visible	true
	Clickable	true
	EllipticalOrbit
	{
		Epoch	2454952.5  # 2009 May 01
		Period	7.393176709615
		SemiMajorAxis	3.795030375039
		Eccentricity	0.399229514023
		Inclination	12.032305206333
		AscendingNode	42.392496670451
		ArgOfPericenter	249.320445059695
		MeanAnomaly	345.579232055477
	}
	UniformRotation
	{
		Period	6
	}
	Albedo	0.04
	InfoURL	"http://ssd.jpl.nasa.gov/sbdb.cgi?sstr=89P"
}

